[{"OBJECT_NAME":"STARLINK-34984","OBJECT_ID":"2025-184T","EPOCH":"2026-03-09T16:53:00.151872","MEAN_MOTION":15.05647339,"ECCENTRICITY":8.635e-5,"INCLINATION":97.6033,"RA_OF_ASC_NODE":122.6862,"ARG_OF_PERICENTER":113.8583,"MEAN_ANOMALY":246.2734,"EPHEMERIS_TYPE":0,"CLASSIFICATION_TYPE":"U","NORAD_CAT_ID":65290,"ELEMENT_SET_NO":999,"REV_AT_EPOCH":3130,"BSTAR":0.00010638319,"MEAN_MOTION_DOT":1.474e-5,"MEAN_MOTION_DDOT":0},{"OBJECT_NAME":"CZ-6A DEB","OBJECT_ID":"2024-140EZ","EPOCH":"2026-03-09T16:13:02.096544","MEAN_MOTION":15.06200416,"ECCENTRICITY":0.00757943,"INCLINATION":89.319,"RA_OF_ASC_NODE":303.8689,"ARG_OF_PERICENTER":93.3463,"MEAN_ANOMALY":267.6449,"EPHEMERIS_TYPE":0,"CLASSIFICATION_TYPE":"U","NORAD_CAT_ID":60774,"ELEMENT_SET_NO":999,"REV_AT_EPOCH":8499,"BSTAR":0.003121721,"MEAN_MOTION_DOT":0.00049072,"MEAN_MOTION_DDOT":0}]
